{
  "links" : {
    "next" : "https://api.nasa.gov/neo/rest/v1/feed?start_date=2006-06-23&end_date=2006-06-23&detailed=true&api_key=t0TVs3DtDT2H8Oy2Zy8m2eVrNsAVKAexjcZXUckd",
    "prev" : "https://api.nasa.gov/neo/rest/v1/feed?start_date=2006-06-21&end_date=2006-06-21&detailed=true&api_key=t0TVs3DtDT2H8Oy2Zy8m2eVrNsAVKAexjcZXUckd",
    "self" : "https://api.nasa.gov/neo/rest/v1/feed?start_date=2006-06-22&end_date=2006-06-22&detailed=true&api_key=t0TVs3DtDT2H8Oy2Zy8m2eVrNsAVKAexjcZXUckd"
  },
  "element_count" : 9,
  "near_earth_objects" : {
    "2006-06-22" : [ {
      "links" : {
        "self" : "https://api.nasa.gov/neo/rest/v1/neo/3334435?api_key=t0TVs3DtDT2H8Oy2Zy8m2eVrNsAVKAexjcZXUckd"
      },
      "neo_reference_id" : "3334435",
      "name" : "(2006 KC40)",
      "nasa_jpl_url" : "http://ssd.jpl.nasa.gov/sbdb.cgi?sstr=3334435",
      "absolute_magnitude_h" : 23.2,
      "estimated_diameter" : {
        "kilometers" : {
          "estimated_diameter_min" : 0.0608912622,
          "estimated_diameter_max" : 0.1361570015
        },
        "meters" : {
          "estimated_diameter_min" : 60.8912622106,
          "estimated_diameter_max" : 136.1570015386
        },
        "miles" : {
          "estimated_diameter_min" : 0.0378360645,
          "estimated_diameter_max" : 0.0846040122
        },
        "feet" : {
          "estimated_diameter_min" : 199.7744887109,
          "estimated_diameter_max" : 446.7093369279
        }
      },
      "is_potentially_hazardous_asteroid" : false,
      "close_approach_data" : [ {
        "close_approach_date" : "2006-06-22",
        "epoch_date_close_approach" : 1150959600000,
        "relative_velocity" : {
          "kilometers_per_second" : "13.5407221895",
          "kilometers_per_hour" : "48746.5998823566",
          "miles_per_hour" : "30289.2414657899"
        },
        "miss_distance" : {
          "astronomical" : "0.0506377322",
          "lunar" : "19.6980781555",
          "kilometers" : "7575297",
          "miles" : "4707071.5"
        },
        "orbiting_body" : "Earth"
      } ],
      "orbital_data" : {
        "orbit_id" : "12",
        "orbit_determination_date" : "2017-04-06 09:08:35",
        "orbit_uncertainty" : "7",
        "minimum_orbit_intersection" : ".0271827",
        "jupiter_tisserand_invariant" : "4.067",
        "epoch_osculation" : "2458000.5",
        "eccentricity" : ".5295580435005064",
        "semi_major_axis" : "1.669298683467895",
        "inclination" : "8.8196922509812",
        "ascending_node_longitude" : "77.93187356595291",
        "orbital_period" : "787.7701183771534",
        "perihelion_distance" : ".7853081386326652",
        "perihelion_argument" : "260.4467527237453",
        "aphelion_distance" : "2.553289228303124",
        "perihelion_time" : "2457895.712942106146",
        "mean_anomaly" : "47.88622970302498",
        "mean_motion" : ".4569861074974745",
        "equinox" : "J2000"
      }
    }, {
      "links" : {
        "self" : "https://api.nasa.gov/neo/rest/v1/neo/3361551?api_key=t0TVs3DtDT2H8Oy2Zy8m2eVrNsAVKAexjcZXUckd"
      },
      "neo_reference_id" : "3361551",
      "name" : "(2006 WR127)",
      "nasa_jpl_url" : "http://ssd.jpl.nasa.gov/sbdb.cgi?sstr=3361551",
      "absolute_magnitude_h" : 20.3,
      "estimated_diameter" : {
        "kilometers" : {
          "estimated_diameter_min" : 0.2315021222,
          "estimated_diameter_max" : 0.5176544822
        },
        "meters" : {
          "estimated_diameter_min" : 231.5021222103,
          "estimated_diameter_max" : 517.6544821978
        },
        "miles" : {
          "estimated_diameter_min" : 0.1438487052,
          "estimated_diameter_max" : 0.3216554833
        },
        "feet" : {
          "estimated_diameter_min" : 759.5214226325,
          "estimated_diameter_max" : 1698.3415313737
        }
      },
      "is_potentially_hazardous_asteroid" : false,
      "close_approach_data" : [ {
        "close_approach_date" : "2006-06-22",
        "epoch_date_close_approach" : 1150959600000,
        "relative_velocity" : {
          "kilometers_per_second" : "19.6666236018",
          "kilometers_per_hour" : "70799.844966485",
          "miles_per_hour" : "43992.2703348696"
        },
        "miss_distance" : {
          "astronomical" : "0.4433089678",
          "lunar" : "172.4471893311",
          "kilometers" : "66318080",
          "miles" : "41208144"
        },
        "orbiting_body" : "Earth"
      } ],
      "orbital_data" : {
        "orbit_id" : "33",
        "orbit_determination_date" : "2017-04-06 09:07:29",
        "orbit_uncertainty" : "1",
        "minimum_orbit_intersection" : ".191857",
        "jupiter_tisserand_invariant" : "6.477",
        "epoch_osculation" : "2458000.5",
        "eccentricity" : ".3759996431263864",
        "semi_major_axis" : ".9070607454923112",
        "inclination" : "16.78914678971103",
        "ascending_node_longitude" : "260.8197366022968",
        "orbital_period" : "315.5389570378068",
        "perihelion_distance" : ".5660062288932483",
        "perihelion_argument" : "351.4503032725676",
        "aphelion_distance" : "1.248115262091374",
        "perihelion_time" : "2458003.110738776270",
        "mean_anomaly" : "357.0213948595118",
        "mean_motion" : "1.140905083098396",
        "equinox" : "J2000"
      }
    }, {
      "links" : {
        "self" : "https://api.nasa.gov/neo/rest/v1/neo/3378415?api_key=t0TVs3DtDT2H8Oy2Zy8m2eVrNsAVKAexjcZXUckd"
      },
      "neo_reference_id" : "3378415",
      "name" : "(2007 LB15)",
      "nasa_jpl_url" : "http://ssd.jpl.nasa.gov/sbdb.cgi?sstr=3378415",
      "absolute_magnitude_h" : 19.3,
      "estimated_diameter" : {
        "kilometers" : {
          "estimated_diameter_min" : 0.3669061375,
          "estimated_diameter_max" : 0.8204270649
        },
        "meters" : {
          "estimated_diameter_min" : 366.9061375314,
          "estimated_diameter_max" : 820.4270648822
        },
        "miles" : {
          "estimated_diameter_min" : 0.2279848336,
          "estimated_diameter_max" : 0.5097895857
        },
        "feet" : {
          "estimated_diameter_min" : 1203.7603322587,
          "estimated_diameter_max" : 2691.6899315481
        }
      },
      "is_potentially_hazardous_asteroid" : true,
      "close_approach_data" : [ {
        "close_approach_date" : "2006-06-22",
        "epoch_date_close_approach" : 1150959600000,
        "relative_velocity" : {
          "kilometers_per_second" : "21.6881374701",
          "kilometers_per_hour" : "78077.2948924057",
          "miles_per_hour" : "48514.1947068951"
        },
        "miss_distance" : {
          "astronomical" : "0.2179075261",
          "lunar" : "84.7660293579",
          "kilometers" : "32598504",
          "miles" : "20255770"
        },
        "orbiting_body" : "Earth"
      } ],
      "orbital_data" : {
        "orbit_id" : "39",
        "orbit_determination_date" : "2016-07-19 06:15:41",
        "orbit_uncertainty" : "1",
        "minimum_orbit_intersection" : ".0066337",
        "jupiter_tisserand_invariant" : "6.251",
        "epoch_osculation" : "2457600.5",
        "eccentricity" : ".3952468407838829",
        "semi_major_axis" : ".9384504440066517",
        "inclination" : "25.19208353374321",
        "ascending_node_longitude" : "262.8172051378506",
        "orbital_period" : "332.0591432638878",
        "perihelion_distance" : ".5675308707807903",
        "perihelion_argument" : "237.3566988213601",
        "aphelion_distance" : "1.309370017232513",
        "perihelion_time" : "2457493.890123594827",
        "mean_anomaly" : "115.5804810210027",
        "mean_motion" : "1.084144217386923",
        "equinox" : "J2000"
      }
    } ]
  }
}